start=new Date('2022-02-23T00:00:00.000Z').valueOf();
sats=[{"ECCENTRICITY":"0.00013820","GP_ID":"196687043","FILE":"3314780","TIME_SYSTEM":"UTC","LAUNCH_DATE":"2021-05-15","REV_AT_EPOCH":"4389","ARG_OF_PERICENTER":"78.1076","MEAN_ANOMALY":"282.0068","TLE_LINE1":"1 48595U 21041AU  22053.87926259  .00000722  00000-0  67390-4 0  9999","OBJECT_NAME":"STARLINK-2252","COUNTRY_CODE":"US","EPHEMERIS_TYPE":"0","ELEMENT_SET_NO":"999","SITE":"AFETR","MEAN_MOTION_DOT":"0.00000722","BSTAR":"0.00006739000000","CENTER_NAME":"EARTH","SEMIMAJOR_AXIS":"6925.365","TLE_LINE2":"2 48595  53.0539 286.7984 0001382  78.1076 282.0068 15.06394715 43896","INCLINATION":"53.0539","OBJECT_ID":"2021-041AU","MEAN_MOTION_DDOT":"0.0000000000000","CLASSIFICATION_TYPE":"U","OBJECT_TYPE":"PAYLOAD","NORAD_CAT_ID":"48595","RCS_SIZE":"LARGE","MEAN_ELEMENT_THEORY":"SGP4","DECAY_DATE":null,"APOAPSIS":"548.187","EPOCH":"2022-02-22T21:06:08.287776","RA_OF_ASC_NODE":"286.7984","PERIOD":"95.592","REF_FRAME":"TEME","MEAN_MOTION":"15.06394715","PERIAPSIS":"546.273"},{"COUNTRY_CODE":"US","MEAN_ANOMALY":"295.5725","TLE_LINE1":"1 48596U 21041AV  22053.90137679  .00000496  00000-0  52196-4 0  9990","OBJECT_NAME":"STARLINK-2253","EPHEMERIS_TYPE":"0","ELEMENT_SET_NO":"999","SITE":"AFETR","MEAN_MOTION_DOT":"0.00000496","SEMIMAJOR_AXIS":"6925.355","TLE_LINE2":"2 48596  53.0551 286.6973 0001635  64.5433 295.5725 15.06398007 43083","BSTAR":"0.00005219600000","CENTER_NAME":"EARTH","INCLINATION":"53.0551","OBJECT_ID":"2021-041AV","GP_ID":"196685791","ECCENTRICITY":"0.00016350","FILE":"3314780","TIME_SYSTEM":"UTC","REV_AT_EPOCH":"4308","LAUNCH_DATE":"2021-05-15","ARG_OF_PERICENTER":"64.5433","APOAPSIS":"548.352","RA_OF_ASC_NODE":"286.6973","PERIOD":"95.592","EPOCH":"2022-02-22T21:37:58.954656","REF_FRAME":"TEME","PERIAPSIS":"546.087","MEAN_MOTION":"15.06398007","MEAN_MOTION_DDOT":"0.0000000000000","CLASSIFICATION_TYPE":"U","OBJECT_TYPE":"PAYLOAD","NORAD_CAT_ID":"48596","DECAY_DATE":null,"RCS_SIZE":"LARGE","MEAN_ELEMENT_THEORY":"SGP4"},{"INCLINATION":"53.0548","OBJECT_ID":"2021-041AW","BSTAR":"0.00007629200000","CENTER_NAME":"EARTH","SEMIMAJOR_AXIS":"6925.369","TLE_LINE2":"2 48597  53.0548 286.6708 0001599  76.9662 283.1506 15.06393253 43893","EPHEMERIS_TYPE":"0","MEAN_MOTION_DOT":"0.00000855","SITE":"AFETR","ELEMENT_SET_NO":"999","TLE_LINE1":"1 48597U 21041AW  22053.90876506  .00000855  00000-0  76292-4 0  9992","MEAN_ANOMALY":"283.1506","OBJECT_NAME":"STARLINK-2255","COUNTRY_CODE":"US","ARG_OF_PERICENTER":"76.9662","LAUNCH_DATE":"2021-05-15","REV_AT_EPOCH":"4389","FILE":"3314780","TIME_SYSTEM":"UTC","ECCENTRICITY":"0.00015990","GP_ID":"196686041","MEAN_MOTION":"15.06393253","PERIAPSIS":"546.127","REF_FRAME":"TEME","EPOCH":"2022-02-22T21:48:37.301184","RA_OF_ASC_NODE":"286.6708","PERIOD":"95.593","APOAPSIS":"548.342","RCS_SIZE":"LARGE","MEAN_ELEMENT_THEORY":"SGP4","DECAY_DATE":null,"NORAD_CAT_ID":"48597","OBJECT_TYPE":"PAYLOAD","MEAN_MOTION_DDOT":"0.0000000000000","CLASSIFICATION_TYPE":"U"},{"ARG_OF_PERICENTER":"70.8085","LAUNCH_DATE":"2021-05-15","REV_AT_EPOCH":"4308","TIME_SYSTEM":"UTC","FILE":"3314780","GP_ID":"196686292","ECCENTRICITY":"0.00016680","INCLINATION":"53.0534","OBJECT_ID":"2021-041AX","TLE_LINE2":"2 48598  53.0534 286.6407 0001668  70.8085 289.3085 15.06400053 43082","SEMIMAJOR_AXIS":"6925.348","CENTER_NAME":"EARTH","BSTAR":"0.00015697000000","MEAN_MOTION_DOT":"0.00002057","SITE":"AFETR","ELEMENT_SET_NO":"999","EPHEMERIS_TYPE":"0","COUNTRY_CODE":"US","OBJECT_NAME":"STARLINK-2256","TLE_LINE1":"1 48598U 21041AX  22053.91244366  .00002057  00000-0  15697-3 0  9994","MEAN_ANOMALY":"289.3085","DECAY_DATE":null,"MEAN_ELEMENT_THEORY":"SGP4","RCS_SIZE":"LARGE","NORAD_CAT_ID":"48598","OBJECT_TYPE":"PAYLOAD","CLASSIFICATION_TYPE":"U","MEAN_MOTION_DDOT":"0.0000000000000","PERIAPSIS":"546.058","MEAN_MOTION":"15.06400053","REF_FRAME":"TEME","RA_OF_ASC_NODE":"286.6407","PERIOD":"95.592","EPOCH":"2022-02-22T21:53:55.132224","APOAPSIS":"548.369"},{"ARG_OF_PERICENTER":"69.5334","REV_AT_EPOCH":"4424","LAUNCH_DATE":"2021-05-15","TIME_SYSTEM":"UTC","FILE":"3314780","ECCENTRICITY":"0.00014530","GP_ID":"196686543","INCLINATION":"53.0546","OBJECT_ID":"2021-041AY","BSTAR":"0.00002353300000","CENTER_NAME":"EARTH","SEMIMAJOR_AXIS":"6925.378","TLE_LINE2":"2 48599  53.0546 261.8117 0001453  69.5334 290.5811 15.06390351 44242","EPHEMERIS_TYPE":"0","SITE":"AFETR","ELEMENT_SET_NO":"999","MEAN_MOTION_DOT":"0.00000069","MEAN_ANOMALY":"290.5811","TLE_LINE1":"1 48599U 21041AY  22053.87237070  .00000069  00000-0  23533-4 0  9994","OBJECT_NAME":"STARLINK-2274","COUNTRY_CODE":"US","RCS_SIZE":"LARGE","MEAN_ELEMENT_THEORY":"SGP4","DECAY_DATE":null,"NORAD_CAT_ID":"48599","OBJECT_TYPE":"PAYLOAD","MEAN_MOTION_DDOT":"0.0000000000000","CLASSIFICATION_TYPE":"U","MEAN_MOTION":"15.06390351","PERIAPSIS":"546.237","REF_FRAME":"TEME","EPOCH":"2022-02-22T20:56:12.828480","RA_OF_ASC_NODE":"261.8117","PERIOD":"95.593","APOAPSIS":"548.249"},{"ECCENTRICITY":"0.00015270","GP_ID":"196685291","FILE":"3314780","TIME_SYSTEM":"UTC","LAUNCH_DATE":"2021-05-15","REV_AT_EPOCH":"4403","ARG_OF_PERICENTER":"76.0449","TLE_LINE1":"1 48600U 21041AZ  22053.90967733  .00000818  00000-0  73801-4 0  9992","MEAN_ANOMALY":"284.0710","OBJECT_NAME":"STARLINK-2275","COUNTRY_CODE":"US","EPHEMERIS_TYPE":"0","MEAN_MOTION_DOT":"0.00000818","SITE":"AFETR","ELEMENT_SET_NO":"999","BSTAR":"0.00007380100000","CENTER_NAME":"EARTH","SEMIMAJOR_AXIS":"6925.343","TLE_LINE2":"2 48600  53.0544 276.6413 0001527  76.0449 284.0710 15.06401667 44034","OBJECT_ID":"2021-041AZ","INCLINATION":"53.0544","MEAN_MOTION_DDOT":"0.0000000000000","CLASSIFICATION_TYPE":"U","OBJECT_TYPE":"PAYLOAD","NORAD_CAT_ID":"48600","RCS_SIZE":"LARGE","MEAN_ELEMENT_THEORY":"SGP4","DECAY_DATE":null,"APOAPSIS":"548.266","EPOCH":"2022-02-22T21:49:56.121312","PERIOD":"95.592","RA_OF_ASC_NODE":"276.6413","REF_FRAME":"TEME","MEAN_MOTION":"15.06401667","PERIAPSIS":"546.151"},{"BSTAR":"-0.00013744000000","CENTER_NAME":"EARTH","SEMIMAJOR_AXIS":"6925.381","TLE_LINE2":"2 48602  53.0509 261.9652 0001730  71.1634 288.9543 15.06389459 44229","OBJECT_ID":"2021-041BB","INCLINATION":"53.0509","TLE_LINE1":"1 48602U 21041BB  22053.83918696 -.00002328  00000-0 -13744-3 0  9999","MEAN_ANOMALY":"288.9543","OBJECT_NAME":"STARLINK-2713","COUNTRY_CODE":"US","EPHEMERIS_TYPE":"0","MEAN_MOTION_DOT":"-0.00002328","SITE":"AFETR","ELEMENT_SET_NO":"999","REV_AT_EPOCH":"4422","LAUNCH_DATE":"2021-05-15","ARG_OF_PERICENTER":"71.1634","ECCENTRICITY":"0.00017300","GP_ID":"196685541","FILE":"3314780","TIME_SYSTEM":"UTC","REF_FRAME":"TEME","MEAN_MOTION":"15.06389459","PERIAPSIS":"546.048","APOAPSIS":"548.444","EPOCH":"2022-02-22T20:08:25.753344","PERIOD":"95.593","RA_OF_ASC_NODE":"261.9652","NORAD_CAT_ID":"48602","RCS_SIZE":"LARGE","MEAN_ELEMENT_THEORY":"SGP4","DECAY_DATE":null,"MEAN_MOTION_DDOT":"0.0000000000000","CLASSIFICATION_TYPE":"U","OBJECT_TYPE":"PAYLOAD"},{"NORAD_CAT_ID":"48603","DECAY_DATE":null,"RCS_SIZE":"LARGE","MEAN_ELEMENT_THEORY":"SGP4","MEAN_MOTION_DDOT":"0.0000000000000","CLASSIFICATION_TYPE":"U","OBJECT_TYPE":"PAYLOAD","REF_FRAME":"TEME","PERIAPSIS":"546.197","MEAN_MOTION":"15.06401182","APOAPSIS":"548.222","RA_OF_ASC_NODE":"257.0592","PERIOD":"95.592","EPOCH":"2022-02-22T19:38:31.675488","REV_AT_EPOCH":"4430","LAUNCH_DATE":"2021-05-15","ARG_OF_PERICENTER":"71.3372","GP_ID":"196686793","ECCENTRICITY":"0.00014620","FILE":"3314780","TIME_SYSTEM":"UTC","SEMIMAJOR_AXIS":"6925.345","TLE_LINE2":"2 48603  53.0533 257.0592 0001462  71.3372 288.7776 15.06401182 44302","BSTAR":"0.00014967000000","CENTER_NAME":"EARTH","OBJECT_ID":"2021-041BC","INCLINATION":"53.0533","COUNTRY_CODE":"US","MEAN_ANOMALY":"288.7776","TLE_LINE1":"1 48603U 21041BC  22053.81842217  .00001949  00000-0  14967-3 0  9997","OBJECT_NAME":"STARLINK-2714","EPHEMERIS_TYPE":"0","MEAN_MOTION_DOT":"0.00001949","SITE":"AFETR","ELEMENT_SET_NO":"999"},{"CLASSIFICATION_TYPE":"U","MEAN_MOTION_DDOT":"0.0000000000000","OBJECT_TYPE":"PAYLOAD","NORAD_CAT_ID":"48604","MEAN_ELEMENT_THEORY":"SGP4","RCS_SIZE":"LARGE","DECAY_DATE":null,"APOAPSIS":"548.407","EPOCH":"2022-02-22T21:16:46.083072","RA_OF_ASC_NODE":"286.7618","PERIOD":"95.592","REF_FRAME":"TEME","MEAN_MOTION":"15.06396909","PERIAPSIS":"546.039","ECCENTRICITY":"0.00017090","GP_ID":"196687044","FILE":"3314780","TIME_SYSTEM":"UTC","LAUNCH_DATE":"2021-05-15","REV_AT_EPOCH":"4389","ARG_OF_PERICENTER":"65.0266","OBJECT_NAME":"STARLINK-2757","MEAN_ANOMALY":"295.0901","TLE_LINE1":"1 48604U 21041BD  22053.88664448  .00000658  00000-0  63049-4 0  9995","COUNTRY_CODE":"US","MEAN_MOTION_DOT":"0.00000658","SITE":"AFETR","ELEMENT_SET_NO":"999","EPHEMERIS_TYPE":"0","CENTER_NAME":"EARTH","BSTAR":"0.00006304900000","TLE_LINE2":"2 48604  53.0557 286.7618 0001709  65.0266 295.0901 15.06396909 43897","SEMIMAJOR_AXIS":"6925.358","OBJECT_ID":"2021-041BD","INCLINATION":"53.0557"},{"CLASSIFICATION_TYPE":"U","MEAN_MOTION_DDOT":"0.0000000000000","OBJECT_TYPE":"PAYLOAD","NORAD_CAT_ID":"48638","MEAN_ELEMENT_THEORY":"SGP4","RCS_SIZE":"LARGE","DECAY_DATE":null,"APOAPSIS":"548.268","EPOCH":"2022-02-22T20:07:03.504000","PERIOD":"95.592","RA_OF_ASC_NODE":"261.9752","REF_FRAME":"TEME","MEAN_MOTION":"15.06398569","PERIAPSIS":"546.168","ECCENTRICITY":"0.00015160","GP_ID":"196686046","TIME_SYSTEM":"UTC","FILE":"3314780","LAUNCH_DATE":"2021-05-26","REV_AT_EPOCH":"4133","ARG_OF_PERICENTER":"85.3127","OBJECT_NAME":"STARLINK-2758","MEAN_ANOMALY":"274.8035","TLE_LINE1":"1 48638U 21044A   22053.83823500 -.00000144  00000-0  92033-5 0  9993","COUNTRY_CODE":"US","SITE":"AFETR","ELEMENT_SET_NO":"999","MEAN_MOTION_DOT":"-0.00000144","EPHEMERIS_TYPE":"0","CENTER_NAME":"EARTH","BSTAR":"0.00000920330000","TLE_LINE2":"2 48638  53.0555 261.9752 0001516  85.3127 274.8035 15.06398569 41337","SEMIMAJOR_AXIS":"6925.353","INCLINATION":"53.0555","OBJECT_ID":"2021-044A"}];
